[{"OBJECT_NAME":"CAPELLA-11 (ACADIA-1)","OBJECT_ID":"2023-126A","EPOCH":"2026-03-09T22:58:53.466528","MEAN_MOTION":14.80465178,"ECCENTRICITY":0.00027448,"INCLINATION":53.0065,"RA_OF_ASC_NODE":254.028,"ARG_OF_PERICENTER":128.81,"MEAN_ANOMALY":231.3123,"EPHEMERIS_TYPE":0,"CLASSIFICATION_TYPE":"U","NORAD_CAT_ID":57693,"ELEMENT_SET_NO":999,"REV_AT_EPOCH":13741,"BSTAR":0.00045921868,"MEAN_MOTION_DOT":3.323e-5,"MEAN_MOTION_DDOT":0},{"OBJECT_NAME":"SL-16 DEB","OBJECT_ID":"1993-016BL","EPOCH":"2026-03-05T18:01:22.151712","MEAN_MOTION":14.78182986,"ECCENTRICITY":0.0045093,"INCLINATION":71.0094,"RA_OF_ASC_NODE":189.5331,"ARG_OF_PERICENTER":24.0544,"MEAN_ANOMALY":336.2703,"EPHEMERIS_TYPE":0,"CLASSIFICATION_TYPE":"U","NORAD_CAT_ID":39886,"ELEMENT_SET_NO":999,"REV_AT_EPOCH":62700,"BSTAR":0.0010794813,"MEAN_MOTION_DOT":7.906e-5,"MEAN_MOTION_DDOT":0}]
